{"type": "FeatureCollection", "features": [ {"type": "Feature", "properties": {"norad_id": 37834, "name": "INTELSAT 18 (IS-18)", "group": "intelsat", "lat": 0.03243926663839726, "lon": 32.14457135325553, "alt_km": 35792.22751474777, "timestamp": "2025-12-08T08:59:00.439829+00:00", "meta": {"OBJECT_NAME": "INTELSAT 18 (IS-18)", "OBJECT_ID": "2011-056A", "EPOCH": "2025-12-07T19:24:14.679072", "MEAN_MOTION": 1.00270807, "ECCENTRICITY": 0.00021289, "INCLINATION": 0.0168, "RA_OF_ASC_NODE": 332.6003, "ARG_OF_PERICENTER": 288.5172, "MEAN_ANOMALY": 286.7673, "EPHEMERIS_TYPE": 0, "CLASSIFICATION_TYPE": "U", "NORAD_CAT_ID": 37834, "ELEMENT_SET_NO": 999, "REV_AT_EPOCH": 5189, "BSTAR": 0, "MEAN_MOTION_DOT": 5.6e-07, "MEAN_MOTION_DDOT": 0}, "tle": {"line1": "1 37834U 11056A   25341.80850323  .00000056  00000+0  00000+0 0  9991", "line2": "2 37834   0.0168 332.6003 0002128 288.5172 286.7673  1.00270807 51892"}}, "geometry": {"type": "Point", "coordinates": [32.14457135325553, 0.03243926663839726]}}, {"type": "Feature", "properties": {"norad_id": 38098, "name": "INTELSAT 22 (IS-22)", "group": "intelsat", "lat": -0.02562035370818946, "lon": -75.75730923529382, "alt_km": 35779.21064755957, "timestamp": "2025-12-08T08:59:00.439841+00:00", "meta": {"OBJECT_NAME": "INTELSAT 22 (IS-22)", "OBJECT_ID": "2012-011A", "EPOCH": "2025-12-07T21:55:38.755200", "MEAN_MOTION": 1.00271209, "ECCENTRICITY": 0.00017426, "INCLINATION": 0.0105, "RA_OF_ASC_NODE": 31.4111, "ARG_OF_PERICENTER": 235.2551, "MEAN_ANOMALY": 211.2821, "EPHEMERIS_TYPE": 0, "CLASSIFICATION_TYPE": "U", "NORAD_CAT_ID": 38098, "ELEMENT_SET_NO": 999, "REV_AT_EPOCH": 527, "BSTAR": 0, "MEAN_MOTION_DOT": -5.6e-07, "MEAN_MOTION_DDOT": 0}, "tle": {"line1": "1 38098U 12011A   25341.91364300 -.00000056  00000+0  00000+0 0  9994", "line2": "2 38098   0.0105  31.4111 0001742 235.2551 211.2821  1.00271209  5277"}}, "geometry": {"type": "Point", "coordinates": [-75.75730923529382, -0.02562035370818946]}}, {"type": "Feature", "properties": {"norad_id": 38356, "name": "INTELSAT 19 (IS-19)", "group": "intelsat", "lat": 0.024294654102495112, "lon": 18.175923792096956, "alt_km": 35792.17847644389, "timestamp": "2025-12-08T08:59:00.439853+00:00", "meta": {"OBJECT_NAME": "INTELSAT 19 (IS-19)", "OBJECT_ID": "2012-030A", "EPOCH": "2025-12-07T19:50:38.705568", "MEAN_MOTION": 1.00273111, "ECCENTRICITY": 0.00037038, "INCLINATION": 0.0116, "RA_OF_ASC_NODE": 322.0756, "ARG_OF_PERICENTER": 301.7218, "MEAN_ANOMALY": 276.7121, "EPHEMERIS_TYPE": 0, "CLASSIFICATION_TYPE": "U", "NORAD_CAT_ID": 38356, "ELEMENT_SET_NO": 999, "REV_AT_EPOCH": 4853, "BSTAR": 0, "MEAN_MOTION_DOT": -5.3e-07, "MEAN_MOTION_DDOT": 0}, "tle": {"line1": "1 38356U 12030A   25341.82683687 -.00000053  00000+0  00000+0 0  9991", "line2": "2 38356   0.0116 322.0756 0003703 301.7218 276.7121  1.00273111 48537"}}, "geometry": {"type": "Point", "coordinates": [18.175923792096956, 0.024294654102495112]}}, {"type": "Feature", "properties": {"norad_id": 38740, "name": "INTELSAT 20 (IS-20)", "group": "intelsat", "lat": -0.00023474274427217636, "lon": -79.36303254734831, "alt_km": 35795.03470532396, "timestamp": "2025-12-08T08:59:00.439865+00:00", "meta": {"OBJECT_NAME": "INTELSAT 20 (IS-20)", "OBJECT_ID": "2012-043A", "EPOCH": "2025-12-07T20:48:32.291424", "MEAN_MOTION": 1.00256173, "ECCENTRICITY": 0.00026391, "INCLINATION": 0.0039, "RA_OF_ASC_NODE": 83.3168, "ARG_OF_PERICENTER": 82.8308, "MEAN_ANOMALY": 291.3783, "EPHEMERIS_TYPE": 0, "CLASSIFICATION_TYPE": "U", "NORAD_CAT_ID": 38740, "ELEMENT_SET_NO": 999, "REV_AT_EPOCH": 4883, "BSTAR": 0, "MEAN_MOTION_DOT": -1.8e-07, "MEAN_MOTION_DDOT": 0}, "tle": {"line1": "1 38740U 12043A   25341.86704041 -.00000018  00000+0  00000+0 0  9995", "line2": "2 38740   0.0039  83.3168 0002639  82.8308 291.3783  1.00256173 48835"}}, "geometry": {"type": "Point", "coordinates": [-79.36303254734831, -0.00023474274427217636]}}, {"type": "Feature", "properties": {"norad_id": 38749, "name": "INTELSAT 21 (IS-21)", "group": "intelsat", "lat": 0.01157213957746425, "lon": 154.10783103138564, "alt_km": 35787.84141906678, "timestamp": "2025-12-08T08:59:00.439877+00:00", "meta": {"OBJECT_NAME": "INTELSAT 21 (IS-21)", "OBJECT_ID": "2012-045A", "EPOCH": "2025-12-07T21:55:09.568416", "MEAN_MOTION": 1.00270803, "ECCENTRICITY": 0.00022245, "INCLINATION": 0.0166, "RA_OF_ASC_NODE": 357.8548, "ARG_OF_PERICENTER": 254.9413, "MEAN_ANOMALY": 94.9277, "EPHEMERIS_TYPE": 0, "CLASSIFICATION_TYPE": "U", "NORAD_CAT_ID": 38749, "ELEMENT_SET_NO": 999, "REV_AT_EPOCH": 4860, "BSTAR": 0, "MEAN_MOTION_DOT": -2.82e-06, "MEAN_MOTION_DDOT": 0}, "tle": {"line1": "1 38749U 12045A   25341.91330519 -.00000282  00000+0  00000+0 0  9990", "line2": "2 38749   0.0166 357.8548 0002224 254.9413  94.9277  1.00270803 48601"}}, "geometry": {"type": "Point", "coordinates": [154.10783103138564, 0.01157213957746425]}}, {"type": "Feature", "properties": {"norad_id": 38867, "name": "INTELSAT 23 (IS-23)", "group": "intelsat", "lat": 0.04017306133389194, "lon": 159.11143389856005, "alt_km": 35789.2442509188, "timestamp": "2025-12-08T08:59:00.439889+00:00", "meta": {"OBJECT_NAME": "INTELSAT 23 (IS-23)", "OBJECT_ID": "2012-057A", "EPOCH": "2025-12-07T21:56:31.936992", "MEAN_MOTION": 1.00271763, "ECCENTRICITY": 0.00014671, "INCLINATION": 0.0488, "RA_OF_ASC_NODE": 95.2077, "ARG_OF_PERICENTER": 184.12, "MEAN_ANOMALY": 73.7314, "EPHEMERIS_TYPE": 0, "CLASSIFICATION_TYPE": "U", "NORAD_CAT_ID": 38867, "ELEMENT_SET_NO": 999, "REV_AT_EPOCH": 4803, "BSTAR": 0, "MEAN_MOTION_DOT": -2.82e-06, "MEAN_MOTION_DDOT": 0}, "tle": {"line1": "1 38867U 12057A   25341.91425853 -.00000282  00000+0  00000+0 0  9990", "line2": "2 38867   0.0488  95.2077 0001467 184.1200  73.7314  1.00271763 48035"}}, "geometry": {"type": "Point", "coordinates": [159.11143389856005, 0.04017306133389194]}}, {"type": "Feature", "properties": {"norad_id": 39360, "name": "FM-6", "group": "intelsat", "lat": 0.01180880945970068, "lon": 95.95449072776705, "alt_km": 35783.38780804653, "timestamp": "2025-12-08T08:59:00.439901+00:00", "meta": {"OBJECT_NAME": "FM-6", "OBJECT_ID": "2013-058A", "EPOCH": "2025-12-07T21:38:34.999008", "MEAN_MOTION": 1.00271197, "ECCENTRICITY": 0.00029413, "INCLINATION": 0.0023, "RA_OF_ASC_NODE": 49.0219, "ARG_OF_PERICENTER": 123.5891, "MEAN_ANOMALY": 112.8105, "EPHEMERIS_TYPE": 0, "CLASSIFICATION_TYPE": "U", "NORAD_CAT_ID": 39360, "ELEMENT_SET_NO": 999, "REV_AT_EPOCH": 4415, "BSTAR": 0, "MEAN_MOTION_DOT": -1.4e-07, "MEAN_MOTION_DDOT": 0}, "tle": {"line1": "1 39360U 13058A   25341.90179397 -.00000014  00000+0  00000+0 0  9992", "line2": "2 39360   0.0023  49.0219 0002941 123.5891 112.8105  1.00271197 44158"}}, "geometry": {"type": "Point", "coordinates": [95.95449072776705, 0.01180880945970068]}}, {"type": "Feature", "properties": {"norad_id": 40271, "name": "INTELSAT 30 (IS-30)", "group": "intelsat", "lat": 0.029468941620011256, "lon": 117.07518912659661, "alt_km": 35782.30822146214, "timestamp": "2025-12-08T08:59:00.439912+00:00", "meta": {"OBJECT_NAME": "INTELSAT 30 (IS-30)", "OBJECT_ID": "2014-062A", "EPOCH": "2025-12-07T21:44:34.424736", "MEAN_MOTION": 1.00269542, "ECCENTRICITY": 0.00011644, "INCLINATION": 0.0135, "RA_OF_ASC_NODE": 16.7904, "ARG_OF_PERICENTER": 74.0642, "MEAN_ANOMALY": 217.1536, "EPHEMERIS_TYPE": 0, "CLASSIFICATION_TYPE": "U", "NORAD_CAT_ID": 40271, "ELEMENT_SET_NO": 999, "REV_AT_EPOCH": 486, "BSTAR": 0, "MEAN_MOTION_DOT": -1.47e-06, "MEAN_MOTION_DDOT": 0}, "tle": {"line1": "1 40271U 14062A   25341.90595399 -.00000147  00000+0  00000+0 0  9992", "line2": "2 40271   0.0135  16.7904 0001164  74.0642 217.1536  1.00269542  4869"}}, "geometry": {"type": "Point", "coordinates": [117.07518912659661, 0.029468941620011256]}}, {"type": "Feature", "properties": {"norad_id": 40333, "name": "DIRECTV 14", "group": "intelsat", "lat": 0.0287606329595152, "lon": 112.9041069722711, "alt_km": 35786.57873548569, "timestamp": "2025-12-08T08:59:00.439924+00:00", "meta": {"OBJECT_NAME": "DIRECTV 14", "OBJECT_ID": "2014-078B", "EPOCH": "2025-12-07T21:43:27.031872", "MEAN_MOTION": 1.0027089, "ECCENTRICITY": 4.244e-05, "INCLINATION": 0.0166, "RA_OF_ASC_NODE": 339.618, "ARG_OF_PERICENTER": 230.6243, "MEAN_ANOMALY": 93.3218, "EPHEMERIS_TYPE": 0, "CLASSIFICATION_TYPE": "U", "NORAD_CAT_ID": 40333, "ELEMENT_SET_NO": 999, "REV_AT_EPOCH": 4012, "BSTAR": 0, "MEAN_MOTION_DOT": -1.22e-06, "MEAN_MOTION_DDOT": 0}, "tle": {"line1": "1 40333U 14078B   25341.90517398 -.00000122  00000+0  00000+0 0  9994", "line2": "2 40333   0.0166 339.6180 0000424 230.6243  93.3218  1.00270890 40128"}}, "geometry": {"type": "Point", "coordinates": [112.9041069722711, 0.0287606329595152]}}, {"type": "Feature", "properties": {"norad_id": 40663, "name": "DIRECTV 15", "group": "intelsat", "lat": 0.031958273921485446, "lon": 109.26557661121778, "alt_km": 35787.463532599664, "timestamp": "2025-12-08T08:59:00.439936+00:00", "meta": {"OBJECT_NAME": "DIRECTV 15", "OBJECT_ID": "2015-026A", "EPOCH": "2025-12-07T21:42:19.639872", "MEAN_MOTION": 1.00270298, "ECCENTRICITY": 4.055e-05, "INCLINATION": 0.0372, "RA_OF_ASC_NODE": 79.2583, "ARG_OF_PERICENTER": 153.9625, "MEAN_ANOMALY": 66.4231, "EPHEMERIS_TYPE": 0, "CLASSIFICATION_TYPE": "U", "NORAD_CAT_ID": 40663, "ELEMENT_SET_NO": 999, "REV_AT_EPOCH": 3854, "BSTAR": 0, "MEAN_MOTION_DOT": -9.9e-07, "MEAN_MOTION_DDOT": 0}, "tle": {"line1": "1 40663U 15026A   25341.90439398 -.00000099  00000+0  00000+0 0  9990", "line2": "2 40663   0.0372  79.2583 0000405 153.9625  66.4231  1.00270298 38548"}}, "geometry": {"type": "Point", "coordinates": [109.26557661121778, 0.031958273921485446]}}]}